{
  "type": "FeatureCollection",
  "features": [
    {
      "type": "Feature",
      "properties": {
        "norad_id": 66942,
        "name": "STARLINK-36100",
        "group": "last-30-days",
        "lat": -28.02503768274386,
        "lon": 22.533964104353117,
        "alt_km": 287.7194495295025,
        "timestamp": "2025-12-13T15:35:10.879111+00:00",
        "meta_object_name": "STARLINK-36100",
        "meta_object_id": "2025-286T",
        "meta_epoch": "2025-12-12T20:00:01.999872",
        "meta_mean_motion": 15.98650725,
        "meta_eccentricity": 6.971e-05,
        "meta_inclination": 53.1565,
        "meta_ra_of_asc_node": 50.2499,
        "meta_arg_of_pericenter": 60.8402,
        "meta_mean_anomaly": 246.9807,
        "meta_ephemeris_type": 0,
        "meta_classification_type": "U",
        "meta_norad_cat_id": 66942,
        "meta_element_set_no": 999,
        "meta_rev_at_epoch": 193,
        "meta_bstar": -0.0027551805,
        "meta_mean_motion_dot": -0.0133763,
        "meta_mean_motion_ddot": 0.00055530138,
        "tle_line1": "1 66942U 25286T   25346.83335648 -.01337630  55530-3 -27552-2 0  9999",
        "tle_line2": "2 66942  53.1565  50.2499 0000697  60.8402 246.9807 15.98650725  1932"
      },
      "geometry": {
        "type": "Point",
        "coordinates": [
          22.533964104353117,
          -28.02503768274386
        ]
      }
    },
    {
      "type": "Feature",
      "properties": {
        "norad_id": 66943,
        "name": "STARLINK-36109",
        "group": "last-30-days",
        "lat": -26.806821940196432,
        "lon": 23.788932838488638,
        "alt_km": 287.402064246332,
        "timestamp": "2025-12-13T15:35:10.879128+00:00",
        "meta_object_name": "STARLINK-36109",
        "meta_object_id": "2025-286U",
        "meta_epoch": "2025-12-12T20:00:01.999872",
        "meta_mean_motion": 15.98755918,
        "meta_eccentricity": 5.969e-05,
        "meta_inclination": 53.1565,
        "meta_ra_of_asc_node": 50.247,
        "meta_arg_of_pericenter": 66.9526,
        "meta_mean_anomaly": 242.2317,
        "meta_ephemeris_type": 0,
        "meta_classification_type": "U",
        "meta_norad_cat_id": 66943,
        "meta_element_set_no": 999,
        "meta_rev_at_epoch": 193,
        "meta_bstar": -0.0027572485,
        "meta_mean_motion_dot": -0.01346456,
        "meta_mean_motion_ddot": 0.00056263197,
        "tle_line1": "1 66943U 25286U   25346.83335648 -.01346456  56263-3 -27572-2 0  9992",
        "tle_line2": "2 66943  53.1565  50.2470 0000596  66.9526 242.2317 15.98755918  1939"
      },
      "geometry": {
        "type": "Point",
        "coordinates": [
          23.788932838488638,
          -26.806821940196432
        ]
      }
    },
    {
      "type": "Feature",
      "properties": {
        "norad_id": 66944,
        "name": "STARLINK-36112",
        "group": "last-30-days",
        "lat": -25.827830261645015,
        "lon": 24.769979055153964,
        "alt_km": 287.03497919052734,
        "timestamp": "2025-12-13T15:35:10.879138+00:00",
        "meta_object_name": "STARLINK-36112",
        "meta_object_id": "2025-286V",
        "meta_epoch": "2025-12-12T20:00:01.999872",
        "meta_mean_motion": 15.9883498,
        "meta_eccentricity": 8.236e-05,
        "meta_inclination": 53.1565,
        "meta_ra_of_asc_node": 50.2446,
        "meta_arg_of_pericenter": 55.6375,
        "meta_mean_anomaly": 254.6469,
        "meta_ephemeris_type": 0,
        "meta_classification_type": "U",
        "meta_norad_cat_id": 66944,
        "meta_element_set_no": 999,
        "meta_rev_at_epoch": 200,
        "meta_bstar": -0.002754836,
        "meta_mean_motion_dot": -0.01351245,
        "meta_mean_motion_ddot": 0.00056676439,
        "tle_line1": "1 66944U 25286V   25346.83335648 -.01351245  56676-3 -27548-2 0  9996",
        "tle_line2": "2 66944  53.1565  50.2446 0000823  55.6375 254.6469 15.98834980  2004"
      },
      "geometry": {
        "type": "Point",
        "coordinates": [
          24.769979055153964,
          -25.827830261645015
        ]
      }
    },
    {
      "type": "Feature",
      "properties": {
        "norad_id": 66945,
        "name": "STARLINK-36110",
        "group": "last-30-days",
        "lat": -24.615914344445397,
        "lon": 25.953387731515097,
        "alt_km": 286.6808590951705,
        "timestamp": "2025-12-13T15:35:10.879148+00:00",
        "meta_object_name": "STARLINK-36110",
        "meta_object_id": "2025-286W",
        "meta_epoch": "2025-12-12T20:00:01.999872",
        "meta_mean_motion": 15.98938301,
        "meta_eccentricity": 6.914e-05,
        "meta_inclination": 53.1563,
        "meta_ra_of_asc_node": 50.2418,
        "meta_arg_of_pericenter": 57.2872,
        "meta_mean_anomaly": 254.3256,
        "meta_ephemeris_type": 0,
        "meta_classification_type": "U",
        "meta_norad_cat_id": 66945,
        "meta_element_set_no": 999,
        "meta_rev_at_epoch": 200,
        "meta_bstar": -0.0027512027,
        "meta_mean_motion_dot": -0.01357255,
        "meta_mean_motion_ddot": 0.00057200198,
        "tle_line1": "1 66945U 25286W   25346.83335648 -.01357255  57200-3 -27512-2 0  9999",
        "tle_line2": "2 66945  53.1563  50.2418 0000691  57.2872 254.3256 15.98938301  2008"
      },
      "geometry": {
        "type": "Point",
        "coordinates": [
          25.953387731515097,
          -24.615914344445397
        ]
      }
    },
    {
      "type": "Feature",
      "properties": {
        "norad_id": 66946,
        "name": "STARLINK-36115",
        "group": "last-30-days",
        "lat": -23.554156620120565,
        "lon": 26.964355502217995,
        "alt_km": 286.3739357862132,
        "timestamp": "2025-12-13T15:35:10.879158+00:00",
        "meta_object_name": "STARLINK-36115",
        "meta_object_id": "2025-286X",
        "meta_epoch": "2025-12-12T20:00:01.999872",
        "meta_mean_motion": 15.9902507,
        "meta_eccentricity": 7.778e-05,
        "meta_inclination": 53.1563,
        "meta_ra_of_asc_node": 50.2393,
        "meta_arg_of_pericenter": 57.3989,
        "meta_mean_anomaly": 255.3846,
        "meta_ephemeris_type": 0,
        "meta_classification_type": "U",
        "meta_norad_cat_id": 66946,
        "meta_element_set_no": 999,
        "meta_rev_at_epoch": 200,
        "meta_bstar": -0.0027515371,
        "meta_mean_motion_dot": -0.01364008,
        "meta_mean_motion_ddot": 0.00057774183,
        "tle_line1": "1 66946U 25286X   25346.83335648 -.01364008  57774-3 -27515-2 0  9993",
        "tle_line2": "2 66946  53.1563  50.2393 0000777  57.3989 255.3846 15.99025070  2003"
      },
      "geometry": {
        "type": "Point",
        "coordinates": [
          26.964355502217995,
          -23.554156620120565
        ]
      }
    },
    {
      "type": "Feature",
      "properties": {
        "norad_id": 66947,
        "name": "STARLINK-36089",
        "group": "last-30-days",
        "lat": -21.25871714516467,
        "lon": 29.076396351481026,
        "alt_km": 285.6979728031438,
        "timestamp": "2025-12-13T15:35:10.879168+00:00",
        "meta_object_name": "STARLINK-36089",
        "meta_object_id": "2025-286Y",
        "meta_epoch": "2025-12-12T20:00:01.999872",
        "meta_mean_motion": 15.99208835,
        "meta_eccentricity": 7.338e-05,
        "meta_inclination": 53.1563,
        "meta_ra_of_asc_node": 50.2342,
        "meta_arg_of_pericenter": 60.7033,
        "meta_mean_anomaly": 254.5675,
        "meta_ephemeris_type": 0,
        "meta_classification_type": "U",
        "meta_norad_cat_id": 66947,
        "meta_element_set_no": 999,
        "meta_rev_at_epoch": 200,
        "meta_bstar": -0.0027313361,
        "meta_mean_motion_dot": -0.01368079,
        "meta_mean_motion_ddot": 0.00058203585,
        "tle_line1": "1 66947U 25286Y   25346.83335648 -.01368079  58204-3 -27313-2 0  9991",
        "tle_line2": "2 66947  53.1563  50.2342 0000733  60.7033 254.5675 15.99208835  2001"
      },
      "geometry": {
        "type": "Point",
        "coordinates": [
          29.076396351481026,
          -21.25871714516467
        ]
      }
    },
    {
      "type": "Feature",
      "properties": {
        "norad_id": 66948,
        "name": "STARLINK-36116",
        "group": "last-30-days",
        "lat": -22.25795886949224,
        "lon": 28.168655953087885,
        "alt_km": 286.03844276093423,
        "timestamp": "2025-12-13T15:35:10.879177+00:00",
        "meta_object_name": "STARLINK-36116",
        "meta_object_id": "2025-286Z",
        "meta_epoch": "2025-12-12T20:00:01.999872",
        "meta_mean_motion": 15.99137708,
        "meta_eccentricity": 5.892e-05,
        "meta_inclination": 53.1563,
        "meta_ra_of_asc_node": 50.2364,
        "meta_arg_of_pericenter": 62.8486,
        "meta_mean_anomaly": 251.3383,
        "meta_ephemeris_type": 0,
        "meta_classification_type": "U",
        "meta_norad_cat_id": 66948,
        "meta_element_set_no": 999,
        "meta_rev_at_epoch": 200,
        "meta_bstar": -0.0027590011,
        "meta_mean_motion_dot": -0.01376263,
        "meta_mean_motion_ddot": 0.00058796259,
        "tle_line1": "1 66948U 25286Z   25346.83335648 -.01376263  58796-3 -27590-2 0  9999",
        "tle_line2": "2 66948  53.1563  50.2364 0000589  62.8486 251.3383 15.99137708  2001"
      },
      "geometry": {
        "type": "Point",
        "coordinates": [
          28.168655953087885,
          -22.25795886949224
        ]
      }
    }
  ]
}